0 LKW-2
1 43080U 17084A   19038.37229377  .00000710  00000-0  32802-4 0  9993
2 43080  97.4228 118.0257 0008195 264.6619 165.5573 15.23391482 62604
0 LKW-2
1 43080U 17084A   19038.17771653  .00000724  00000-0  33425-4 0  9997
2 43080  97.4229 117.8332 0008184 265.5415 178.2591 15.23391276 62576
0 YAOGAN-30 G
1 43081U 17085A   19038.17632635  .00000137  00000-0  16820-4 0  9993
2 43081  34.9993  87.3141 0004972 359.2567   0.8139 14.89595575 60935
0 YAOGAN-30 G
1 43081U 17085A   19038.37740173  .00000128  00000-0  15978-4 0  9995
2 43081  34.9993  86.1135 0004935   0.5515 359.5194 14.89595548 60961
0 YAOGAN-30 G
1 43081U 17085A   19038.91360296  .00000140  00000-0  17205-4 0  9998
2 43081  34.9992  82.9117 0004897   4.1366 355.9386 14.89595792 61049
0 YAOGAN-30 G
1 43081U 17085A   19038.57847731  .00000140  00000-0  17137-4 0  9998
2 43081  34.9992  84.9127 0004933   1.5682 358.5051 14.89595667 60997
0 YAOGAN-30 H
1 43082U 17085B   19038.60123526  .00000128  00000-0  15943-4 0  9991
2 43082  34.9983  85.0653 0005347 220.3850 139.6457 14.89599206 60982
0 YAOGAN-30 H
1 43082U 17085B   19038.40016080  .00000127  00000-0  15776-4 0  9998
2 43082  34.9984  86.2663 0005361 218.7783 141.2536 14.89599127 60955
0 YAOGAN-30 H
1 43082U 17085B   19038.06503714  .00000118  00000-0  14891-4 0  9992
2 43082  34.9985  88.2664 0005193 215.4297 144.6064 14.89598986 60906
0 YAOGAN-30 J
1 43083U 17085C   19038.42210181  .00000142  00000-0  17401-4 0  9993
2 43083  34.9986  86.4561 0005508 346.0117  14.0427 14.89600982 60965
0 YAOGAN-30 J
1 43083U 17085C   19038.08697729  .00000139  00000-0  17071-4 0  9991
2 43083  34.9986  88.4575 0005527 343.5025  16.5501 14.89600879 60913
0 YAOGAN-30 J
1 43083U 17085C   19038.75722676  .00000134  00000-0  16535-4 0  9994
2 43083  34.9985  84.4550 0005489 348.5119  11.5466 14.89601010 61012
0 CZ-2C R/B
1 43084U 17085D   19038.40249076  .00000473  00000-0  31364-4 0  9998
2 43084  34.6706  19.1270 0101689   8.2829 351.9528 15.04283764 61562
0 CZ-2C R/B
1 43084U 17085D   19037.93789957 +.00000466 +00000-0 +30926-4 0  9997
2 43084 034.6707 021.9776 0101739 004.1498 356.0030 15.04283203061492
0 COSMOS 1461 DEB
1 43085U 83044GN  19037.94649143 +.00011452 +00000-0 +82294-3 0  9990
2 43085 065.0001 220.0948 0081806 175.3384 184.8518 15.01925107061455
0 COSMOS 1461 DEB
1 43085U 83044GN  19038.14624953  .00011642  00000-0  83626-3 0  9996
2 43085  65.0003 219.4688 0081803 175.2838 184.9072 15.01930040 61470
0 ANGOSAT 1
1 43087U 17086A   19038.09207864 -.00000046  00000-0  00000+0 0  9991
2 43087   0.9554  94.3106 0015168 115.9662 149.6102  0.99382574  4049
0 ANGOSAT 1
1 43087U 17086A   19037.08587481 -.00000025 +00000-0 +00000-0 0  9993
2 43087 000.9531 094.3217 0015198 115.9961 149.5670 00.99382179004020
0 FREGAT R/B
1 43088U 17086B   19037.10050268 -.00000165 +00000-0 +00000-0 0  9990
2 43088 000.9232 081.2300 0117220 330.8168 308.9734 00.98391977003995
0 FREGAT R/B
1 43088U 17086B   19038.11683275 -.00000200  00000-0  00000+0 0  9991
2 43088   0.9255  81.2298 0117247 330.8370 308.9555  0.98392314  4011
0 FREGAT DEB (TANK)
1 43089U 17086C   19038.27161518  .00007252  34937-5  21856-3 0  9990
2 43089  50.4194  74.6691 2188146 120.1662 263.3919 11.06817288 44980
0 FREGAT DEB (TANK)
1 43089U 17086C   19037.54925425 +.00007812 +35019-5 +23324-3 0  9990
2 43089 050.4196 076.5172 2188163 118.6751 265.1304 11.06806167044901
0 CZ-2D DEB
1 43095U 17084B   19037.44487773 +.00001790 +00000-0 +73871-4 0  9992
2 43095 097.4220 117.7801 0008800 275.4179 084.6055 15.25338564061987
0 CZ-2D DEB
1 43095U 17084B   19038.16649143  .00001736  00000-0  71702-4 0  9994
2 43095  97.4216 118.4958 0008804 272.4366  87.5864 15.25341087 62088
0 CZ-2D DEB
1 43096U 17084C   19038.20841112  .00002036  00000-0  79421-4 0  9990
2 43096  97.4471 120.8348 0015251 283.6020  76.3520 15.27010162 62159
0 CZ-2D DEB
1 43096U 17084C   19037.68417470 +.00002123 +00000-0 +82706-4 0  9994
2 43096 097.4473 120.3118 0015253 285.6663 074.2893 15.27008285062083
0 CZ-2D DEB
1 43097U 17084D   19037.66102568 +.00004664 +00000-0 +11995-3 0  9995
2 43097 097.3204 119.9611 0048152 292.2992 067.3152 15.38582507062504
0 CZ-2D DEB
1 43097U 17084D   19038.44146949  .00004491  00000-0  11557-3 0  9995
2 43097  97.3202 120.7403 0048179 289.4365  70.1678 15.38588749 62624
0 SUPERVIEW-1 03
1 43099U 18002A   19038.16994635  .00000253  00000-0  17434-4 0  9993
2 43099  97.5465 117.7279 0007830  48.2452   6.0457 15.14262026 59612
0 SUPERVIEW-1 03
1 43099U 18002A   19038.24164786  .00000254  00000-0  17509-4 0  9992
2 43099  97.5464 117.7991 0007844  47.8495  37.0634 15.14262096 59628
0 SUPERVIEW-1 03
1 43099U 18002A   19038.78205682  .00000321  00000-0  21162-4 0  9997
2 43099  97.5463 118.3347 0007823  46.6694 102.3378 15.14263060 59706
0 SUPERVIEW-1 04
1 43100U 18002B   19038.80439659  .00000631  00000-0  38052-4 0  9996
2 43100  97.5466 118.4631 0013974  32.5232  81.8569 15.14314887 59713
0 SUPERVIEW-1 04
1 43100U 18002B   19038.27030616  .00000716  00000-0  42681-4 0  9994
2 43100  97.5467 117.9336 0014089  34.3464  50.2690 15.14314727 59634
0 SUPERVIEW-1 04
1 43100U 18002B   19038.13349641  .00000727  00000-0  43275-4 0  9992
2 43100  97.5468 117.7979 0014102  34.7986  24.4669 15.14314602 59614
0 CZ-2D R/B
1 43101U 18002C   19038.29438355  .00001357  00000-0  77566-4 0  9991
2 43101  97.5489 117.8167 0015396  16.4878 343.6852 15.14317019 59627
0 CZ-2D R/B
1 43101U 18002C   19037.83183632 +.00001377 +00000-0 +78676-4 0  9990
2 43101 097.5490 117.3579 0015438 018.0370 342.1406 15.14315845059559
0 CZ-2D DEB
1 43102U 18002D   19038.73780326  .00001071  00000-0  71322-4 0  9996
2 43102  97.4291 109.3330 0015495 218.0284 141.9852 15.09087778 59491
0 CZ-2D DEB
1 43103U 18002E   19037.65394713 +.00000277 +00000-0 +24360-4 0  9995
2 43103 097.6787 117.8083 0036286 302.6554 057.1173 15.04067870059135
0 CZ-2D DEB
1 43103U 18002E   19038.18617007  .00000289  00000-0  25237-4 0  9995
2 43103  97.6786 118.3368 0036315 300.7589  59.0063 15.04068104 59215
0 CZ-2D DEB
1 43104U 18002F   19038.19254693  .00001899  00000-0  76207-4 0  9996
2 43104  97.4112 116.8347 0052096  29.9383 330.4816 15.24999214 60012
0 CZ-2D DEB
1 43104U 18002F   19037.66762222 +.00002025 +00000-0 +81077-4 0  9992
2 43104 097.4114 116.3151 0052149 031.7669 328.6697 15.24997539059943
0 CZ-2D DEB
1 43105U 18002G   19037.70521171 +.00001896 +00000-0 +84016-4 0  9995
2 43105 097.6746 127.9566 0047678 026.3766 333.9881 15.21937791059826
0 CZ-2D DEB
1 43105U 18002G   19038.23118893  .00001824  00000-0  80972-4 0  9995
2 43105  97.6744 128.4932 0047634  24.5545 335.7944 15.21939455 59902
0 BEIDOU 3M3
1 43107U 18003A   19038.20314241 -.00000064  00000-0  00000+0 0  9995
2 43107  55.1996  34.5996 0004121 356.9221 196.0586  1.86232725  7316
0 BEIDOU 3M3
1 43107U 18003A   19037.60907734 -.00000066 +00000-0 +00000-0 0  9996
2 43107 055.1994 034.6198 0004053 357.0399 157.6460 01.86232702007309
0 CZ-3B R/B
1 43110U 18003D   19037.69377292 +.00007933 +00000-0 +40872-3 0  9992
2 43110 054.8427 186.7444 5723171 295.9882 016.7688 04.52635324017462
0 CZ-3B R/B
1 43110U 18003D   19037.69377292  .00007933  00000-0  40872-3 0  9992
2 43110  54.8427 186.7444 5723171 295.9882  16.7688  4.52635324 17462
0 CARTOSAT 2F
1 43111U 18004A   19038.36934322  .00000607  00000-0  32030-4 0  9991
2 43111  97.4530 101.8286 0004350   9.1185  54.0615 15.19257735 59394
0 CARTOSAT 2F
1 43111U 18004A   19038.70793786  .00000607  00000-0  32030-4 0  9996
2 43111  97.4529 102.1625 0004343   7.6234 106.2601 15.19258121 59444
0 CARTOSAT 2F
1 43111U 18004A   19038.83946378  .00000607  00000-0  32030-4 0  9997
2 43111  97.4527 102.2921 0004280   7.0276 105.7547 15.19258211 59467
0 CARTOSAT 2F
1 43111U 18004A   19038.17049977  .00000607  00000-0  32030-4 0  9993
2 43111  97.4530 101.6325 0004333   9.6511  46.6835 15.19257569 59368
0 PSLV DEB
1 43112U 18004B   19037.89026969 +.00002470 +00000-0 +10669-3 0  9991
2 43112 097.5074 105.7492 0009761 344.5209 015.5728 15.23428368059434
0 PSLV DEB
1 43112U 18004B   19038.74415224  .00002434  00000-0  10517-3 0  9994
2 43112  97.5072 106.6033 0009676 341.3626  18.7255 15.23432349 59564
0 LEO 1
1 43113U 18004C   19037.92555231 -.00000030 +00000-0 +16256-4 0  9995
2 43113 099.4489 100.3924 0004539 273.0435 087.0191 13.69846042054188
0 ICEYE-X1
1 43114U 18004D   19038.17520726  .00000870  00000-0  40687-4 0  9991
2 43114  97.5044 105.7470 0009751 351.1085   8.9976 15.22449482 59467
0 ICEYE-X1
1 43114U 18004D   19038.76673689  .00000859  00000-0  40216-4 0  9998
2 43114  97.5043 106.3376 0009691 348.9810  11.1213 15.22450578 59559
0 ICEYE-X1
1 43114U 18004D   19038.83246236  .00000857  00000-0  40093-4 0  9991
2 43114  97.5043 106.4032 0009684 348.7389  11.3629 15.22450682 59560
0 ICEYE-X1
1 43114U 18004D   19038.24093285  .00000935  00000-0  43483-4 0  9993
2 43114  97.5044 105.8126 0009744 350.8779   9.2279 15.22449935 59478
0 CARBONITE 2
1 43115U 18004E   19038.39780030  .00000469  00000-0  23547-4 0  9992
2 43115  97.5040 105.9064 0009852 352.0159   8.0919 15.22163734 59505
0 CARBONITE 2
1 43115U 18004E   19038.85796528  .00000437  00000-0  22144-4 0  9999
2 43115  97.5039 106.3656 0009809 350.3563   9.7483 15.22164073 59575
0 CARBONITE 2
1 43115U 18004E   19038.79222745  .00000438  00000-0  22185-4 0  9993
2 43115  97.5040 106.3000 0009816 350.5958   9.5093 15.22164006 59568
0 CARBONITE 2
1 43115U 18004E   19037.93763524 +.00000449 +00000-0 +22672-4 0  9996
2 43115 097.5041 105.4472 0009900 353.6657 006.4452 15.22163073059430
